OBJECT_NAME,OBJECT_ID,EPOCH,MEAN_MOTION,ECCENTRICITY,INCLINATION,RA_OF_ASC_NODE,ARG_OF_PERICENTER,MEAN_ANOMALY,EPHEMERIS_TYPE,CLASSIFICATION_TYPE,NORAD_CAT_ID,ELEMENT_SET_NO,REV_AT_EPOCH,BSTAR,MEAN_MOTION_DOT,MEAN_MOTION_DDOT
SIRION PATHFINDER-2,2018-099B,2026-06-08T01:32:18.947616,15.14472143,.00078772,97.4257,208.3390,341.7112,18.3836,0,U,43759,999,41124,.30220513E-3,.5499E-4,0
CORVUS BC4,2018-099K,2026-06-08T01:23:59.144352,15.12424623,.00091733,97.4070,202.3062,42.4404,317.7535,0,U,43767,999,41102,.31238245E-3,.5369E-4,0
M2 PATHFINDER,2020-037E,2026-06-08T00:03:45.833184,15.04638324,.0011604,97.8161,350.1310,177.3057,182.8233,0,U,45727,999,32411,.22564096E-3,.3111E-4,0
NETSAT-4,2020-068U,2026-06-07T23:38:32.970048,15.43561096,.00050562,97.8613,166.4883,15.4925,344.6476,0,U,46504,999,31435,.42125856E-3,.18852E-3,0
NETSAT-3,2020-068V,2026-06-07T23:37:21.018720,15.42363292,.00055034,97.8661,164.7158,33.0816,327.0773,0,U,46505,999,31426,.44400088E-3,.19094E-3,0
NETSAT-1,2020-068W,2026-06-07T22:35:11.640480,15.34424602,.00060634,97.8751,159.1088,58.2539,301.9293,0,U,46506,999,31388,.41284886E-3,.13693E-3,0
NETSAT-2,2020-068X,2026-06-07T23:20:55.091904,15.45603022,.00046978,97.8623,166.3369,51.1192,309.0474,0,U,46507,999,31431,.51519351E-3,.2475E-3,0
GREENCUBE (IO-117),2022-080E,2026-06-01T11:09:37.753056,6.42583280,.00088692,70.1435,303.7143,293.3663,66.6064,0,U,53109,999,9105,0,-.3E-7,0
SITRO-AIS 5 (KATYS),2023-091L,2026-06-08T05:41:21.456960,15.29248697,.00126954,97.5062,223.0525,131.0881,229.1458,0,U,57176,999,16297,.36694653E-3,.10364E-3,0
SITRO-AIS 6 (CHIRKIN),2023-091AC,2026-06-08T06:15:53.931168,15.25763742,.00129205,97.5069,222.2431,134.0865,226.1439,0,U,57192,999,16292,.36061791E-3,.9157E-4,0
SITRO-AIS 8 (ANOKHIN),2023-091AD,2026-06-08T06:28:14.596032,15.31889388,.0011828,97.5058,224.6380,127.1927,233.0396,0,U,57193,999,16308,.38613129E-3,.1184E-3,0
SITRO-AIS 7 (FARTUSHNIY),2023-091AE,2026-06-08T06:17:49.159392,15.25454572,.00127727,97.5067,222.0738,134.9642,225.2634,0,U,57194,999,16291,.352877E-3,.8875E-4,0
SITRO-AIS 10 (BURDAEV),2023-091AK,2026-06-08T06:33:38.540736,15.38269571,.00079368,97.5081,229.6049,106.4049,253.8069,0,U,57199,999,16339,.46674731E-3,.17552E-3,0
SITRO-AIS 9 (SHCHUKIN),2023-091AM,2026-06-08T05:33:55.339200,15.37790930,.00081675,97.5079,229.2992,106.7229,253.4913,0,U,57201,999,16337,.44867049E-3,.16608E-3,0
SITRO-AIS 12 (SMIRENNIY),2023-091AQ,2026-06-08T05:22:50.994048,15.38081251,.00077772,97.5092,229.7530,101.6182,258.5936,0,U,57204,999,16339,.45650395E-3,.17059E-3,0
SITRO-AIS 11 (SHEFFER),2023-091AU,2026-06-08T05:45:42.464448,15.38497628,.00076632,97.5090,230.0101,101.6799,258.5306,0,U,57208,999,16341,.4547247E-3,.17223E-3,0
SITRO-AIS 25,2024-039R,2026-06-08T06:20:29.279328,14.93465450,.01446179,95.3910,228.9610,0.1338,359.9901,0,U,59066,999,12339,.27572185E-3,.3527E-4,0
SITRO-AIS 26,2024-039S,2026-06-08T06:20:42.960768,14.93262397,.01449835,95.3911,228.8607,0.7078,359.4325,0,U,59067,999,12338,.27228676E-3,.3467E-4,0
SITRO-AIS 27,2024-039T,2026-06-08T07:17:55.635360,14.93680671,.01440305,95.3911,229.1556,359.1892,0.9077,0,U,59068,999,12341,.21182992E-3,.2713E-4,0
SITRO-AIS 28,2024-039U,2026-06-08T05:09:16.342272,14.93717974,.01438973,95.3915,229.1409,359.4131,0.6902,0,U,59071,999,12340,.32593489E-3,.4197E-4,0
GRBBETA,2024-128C,2026-06-07T19:05:36.987936,15.06577038,.00419103,61.9897,249.2153,132.7105,227.7529,0,U,60237,999,10485,.33996986E-3,.4941E-4,0
OOV-CUBE (TUBSAT-30),2024-128F,2026-06-08T00:08:43.584864,15.02735598,.00457829,61.9951,257.5861,131.6813,228.8211,0,U,60240,999,10473,.23032823E-3,.2948E-4,0
ROBUSTA-3A (MEDITERRANEE),2024-128J,2026-06-07T22:33:44.106048,15.11566306,.00425066,61.9858,240.9422,126.1786,234.3253,0,U,60243,999,10502,.48495717E-3,.8231E-4,0
LASARSAT,2024-247Q,2026-06-07T20:47:16.155744,15.45786656,.00083327,44.9755,314.5710,280.1166,79.8784,0,U,62391,999,8187,.69568469E-3,.34284E-3,0
CROCUBE,2024-247T,2026-06-08T06:17:54.142080,15.47618996,.00081951,44.9728,309.8218,285.5396,74.4590,0,U,62394,999,8196,.62905074E-3,.33002E-3,0
FORESAIL-1 PRIME,2025-276DS,2026-06-08T04:01:00.773184,15.18619338,.00037138,97.4199,232.6039,122.1307,238.0288,0,U,66778,999,2903,.21751493E-3,.4435E-4,0
KNACKSAT-2,1998-067XZ,2026-06-07T19:16:13.947744,15.59121118,.0010362,51.6303,341.6515,174.2130,185.8984,0,U,67683,999,1881,.61257743E-3,.48726E-3,0
