SIRION PATHFINDER-2     
1 43759U 18099B   26159.06410819  .00005499  00000+0  30221-3 0  9994
2 43759  97.4257 208.3390 0007877 341.7112  18.3836 15.14472143411240
CORVUS BC4              
1 43767U 18099K   26159.05832343  .00005369  00000+0  31238-3 0  9997
2 43767  97.4070 202.3062 0009173  42.4404 317.7535 15.12424623411028
M2 PATHFINDER           
1 45727U 20037E   26159.00261381  .00003111  00000+0  22564-3 0  9998
2 45727  97.8161 350.1310 0011604 177.3057 182.8233 15.04638324324118
NETSAT-4                
1 46504U 20068U   26158.98510382  .00018852  00000+0  42126-3 0  9994
2 46504  97.8613 166.4883 0005056  15.4925 344.6476 15.43561096314353
NETSAT-3                
1 46505U 20068V   26158.98427105  .00019094  00000+0  44400-3 0  9991
2 46505  97.8661 164.7158 0005503  33.0816 327.0773 15.42363292314267
NETSAT-1                
1 46506U 20068W   26158.94110695  .00013693  00000+0  41285-3 0  9998
2 46506  97.8751 159.1088 0006063  58.2539 301.9293 15.34424602313880
NETSAT-2                
1 46507U 20068X   26158.97285986  .00024750  00000+0  51519-3 0  9995
2 46507  97.8623 166.3369 0004697  51.1192 309.0474 15.45603022314315
GREENCUBE (IO-117)      
1 53109U 22080E   26152.46502029 -.00000003  00000+0  00000+0 0  9996
2 53109  70.1435 303.7143 0008869 293.3663  66.6064  6.42583280 91055
SITRO-AIS 5 (KATYS)     
1 57176U 23091L   26159.23705390  .00010364  00000+0  36695-3 0  9998
2 57176  97.5062 223.0525 0012695 131.0881 229.1458 15.29248697162970
SITRO-AIS 6 (CHIRKIN)   
1 57192U 23091AC  26159.26104087  .00009157  00000+0  36062-3 0  9991
2 57192  97.5069 222.2431 0012920 134.0865 226.1439 15.25763742162928
SITRO-AIS 8 (ANOKHIN)   
1 57193U 23091AD  26159.26961338  .00011840  00000+0  38613-3 0  9998
2 57193  97.5058 224.6380 0011828 127.1927 233.0396 15.31889388163083
SITRO-AIS 7 (FARTUSHNIY)
1 57194U 23091AE  26159.26237453  .00008875  00000+0  35288-3 0  9992
2 57194  97.5067 222.0738 0012772 134.9642 225.2634 15.25454572162917
SITRO-AIS 10 (BURDAEV)  
1 57199U 23091AK  26159.27336274  .00017552  00000+0  46675-3 0  9993
2 57199  97.5081 229.6049 0007936 106.4049 253.8069 15.38269571163396
SITRO-AIS 9 (SHCHUKIN)  
1 57201U 23091AM  26159.23189050  .00016608  00000+0  44867-3 0  9993
2 57201  97.5079 229.2992 0008167 106.7229 253.4913 15.37790930163379
SITRO-AIS 12 (SMIRENNIY)
1 57204U 23091AQ  26159.22420132  .00017059  00000+0  45650-3 0  9996
2 57204  97.5092 229.7530 0007777 101.6182 258.5936 15.38081251163391
SITRO-AIS 11 (SHEFFER)  
1 57208U 23091AU  26159.24007482  .00017223  00000+0  45472-3 0  9996
2 57208  97.5090 230.0101 0007663 101.6799 258.5306 15.38497628163413
SITRO-AIS 25            
1 59066U 24039R   26159.26422777  .00003527  00000+0  27572-3 0  9996
2 59066  95.3910 228.9610 0144617   0.1338 359.9901 14.93465450123396
SITRO-AIS 26            
1 59067U 24039S   26159.26438612  .00003467  00000+0  27229-3 0  9994
2 59067  95.3911 228.8607 0144983   0.7078 359.4325 14.93262397123385
SITRO-AIS 27            
1 59068U 24039T   26159.30411615  .00002713  00000+0  21183-3 0  9990
2 59068  95.3911 229.1556 0144030 359.1892   0.9077 14.93680671123416
SITRO-AIS 28            
1 59071U 24039U   26159.21477248  .00004197  00000+0  32593-3 0  9993
2 59071  95.3915 229.1409 0143897 359.4131   0.6902 14.93717974123400
GRBBETA                 
1 60237U 24128C   26158.79556699  .00004941  00000+0  33997-3 0  9994
2 60237  61.9897 249.2153 0041910 132.7105 227.7529 15.06577038104854
OOV-CUBE (TUBSAT-30)    
1 60240U 24128F   26159.00606001  .00002948  00000+0  23033-3 0  9991
2 60240  61.9951 257.5861 0045782 131.6813 228.8211 15.02735598104732
ROBUSTA-3A (MEDITERRAN*)
1 60243U 24128J   26158.94009382  .00008231  00000+0  48496-3 0  9996
2 60243  61.9858 240.9422 0042506 126.1786 234.3253 15.11566306105029
LASARSAT                
1 62391U 24247Q   26158.86615921  .00034284  00000+0  69568-3 0  9997
2 62391  44.9755 314.5710 0008332 280.1166  79.8784 15.45786656 81878
CROCUBE                 
1 62394U 24247T   26159.26243220  .00033002  00000+0  62905-3 0  9999
2 62394  44.9728 309.8218 0008195 285.5396  74.4590 15.47618996 81961
FORESAIL-1 PRIME        
1 66778U 25276DS  26159.16737006  .00004435  00000+0  21751-3 0  9993
2 66778  97.4199 232.6039 0003713 122.1307 238.0288 15.18619338 29030
KNACKSAT-2              
1 67683U 98067XZ  26158.80293921  .00048726  00000+0  61258-3 0  9997
2 67683  51.6303 341.6515 0010362 174.2130 185.8984 15.59121118 18810
